     2.10           N: GPS NAV DATA                         RINEX VERSION / TYPE
sbf2rin-15.6.1                          27-JAN-24 14:21     PGM / RUN BY / DATE 
    2.2352E-08  0.0000E+00 -1.1921E-07  1.1921E-07          ION ALPHA           
    1.3926E+05 -1.3107E+05  6.5536E+04 -1.9661E+05          ION BETA            
    2.793967723846E-09 8.881784197001E-15   233472     2298 DELTA-UTC: A0,A1,T,W
    18                                                      LEAP SECONDS        
                                                            END OF HEADER       
03 24  1 21 14  0  0.0 1.411461271346E-04 2.535216481192E-11 0.000000000000E+00
    1.240000000000E+02-1.082812500000E+02 3.829088068316E-09 9.867970742533E-01
   -5.790963768959E-06 5.059584742412E-03 7.880851626396E-06 5.153796627045E+03
    5.040000000000E+04-5.587935447693E-08-9.558642902816E-01-1.862645149231E-09
    9.825553900959E-01 2.378125000000E+02 1.074997108916E+00-7.769966507436E-09
    2.892977646988E-11 1.000000000000E+00 2.298000000000E+03 0.000000000000E+00
    2.800000000000E+00 0.000000000000E+00 1.862645149231E-09 1.240000000000E+02
    4.321800000000E+04 4.000000000000E+00
05 24  1 21 15 59 44.0-1.588044688106E-04-1.364242052659E-12 0.000000000000E+00
    1.800000000000E+01-1.284687500000E+02 4.065526488354E-09-7.271600983254E-01
   -6.502494215965E-06 5.773670272902E-03 7.800757884979E-06 5.153798553467E+03
    5.758400000000E+04-5.587935447693E-08-1.005600094915E+00 8.009374141693E-08
    9.695168020949E-01 2.325937500000E+02 1.232127991419E+00-7.938544957976E-09
    6.500270762369E-11 1.000000000000E+00 2.298000000000E+03 0.000000000000E+00
    2.000000000000E+00 0.000000000000E+00-1.117587089539E-08 1.800000000000E+01
    5.220600000000E+04 4.000000000000E+00
06 24  1 21 16  0  0.0 4.367395304143E-04-1.364242052659E-11 0.000000000000E+00
    5.500000000000E+01-2.996875000000E+01 3.967665269184E-09-2.977160867752E+00
   -1.501291990280E-06 3.132169600576E-03 1.566484570503E-06 5.153550527573E+03
    5.760000000000E+04-1.676380634308E-08-1.993445769829E+00 2.421438694000E-08
    9.895320186205E-01 3.662500000000E+02-8.040589884214E-01-8.027477233791E-09
   -6.071681481333E-11 1.000000000000E+00 2.298000000000E+03 0.000000000000E+00
    2.000000000000E+00 0.000000000000E+00 3.725290298462E-09 5.500000000000E+01
    5.041800000000E+04 4.000000000000E+00
09 24  1 21 16  0  0.0 6.611412391067E-05 1.227817847393E-11 0.000000000000E+00
    4.000000000000E+01-2.018750000000E+01 4.589476884420E-09-5.822147601989E-01
   -1.300126314163E-06 2.853461657651E-03 9.084120392799E-06 5.153736049652E+03
    5.760000000000E+04-4.842877388000E-08 6.485626842676E-02 7.450580596924E-09
    9.579946427907E-01 2.053750000000E+02 2.010153896190E+00-7.919615598064E-09
    5.318078662180E-10 1.000000000000E+00 2.298000000000E+03 0.000000000000E+00
    2.000000000000E+00 0.000000000000E+00 1.396983861923E-09 4.000000000000E+01
    5.041800000000E+04 4.000000000000E+00
11 24  1 21 16  0  0.0-5.480679683387E-04-1.375610736432E-11 0.000000000000E+00
    6.000000000000E+00-4.284375000000E+01 4.431970323639E-09-1.838940582434E+00
   -2.095475792885E-06 1.271190587431E-03 1.454725861549E-06 5.153655576706E+03
    5.760000000000E+04-1.862645149231E-08-1.957531871220E+00-3.911554813385E-08
    9.659449837372E-01 3.565312500000E+02-2.468083093567E+00-8.293559745767E-09
   -6.857428496565E-11 1.000000000000E+00 2.298000000000E+03 0.000000000000E+00
    2.000000000000E+00 0.000000000000E+00-8.381903171539E-09 5.180000000000E+02
    5.041800000000E+04 4.000000000000E+00
12 24  1 21 16  0  0.0-4.701376892626E-04-3.865352482535E-12 0.000000000000E+00
    9.300000000000E+01 5.925000000000E+01 4.283392706214E-09 1.708366196652E+00
    2.801418304443E-06 8.937194244936E-03 1.007504761219E-05 5.153724779129E+03
    5.760000000000E+04-4.470348358154E-08 2.252528021851E+00-2.458691596985E-07
    9.632469209978E-01 1.837500000000E+02 1.407039396770E+00-7.708535377154E-09
   -4.775198906202E-10 1.000000000000E+00 2.298000000000E+03 0.000000000000E+00
    2.800000000000E+00 0.000000000000E+00-1.257285475731E-08 9.300000000000E+01
    5.041800000000E+04 4.000000000000E+00
13 24  1 21 16  0  0.0 6.180447526276E-04 3.751665644813E-12 0.000000000000E+00
    1.020000000000E+02-1.400000000000E+01 4.374825086168E-09-1.347806111455E+00
   -6.519258022308E-07 7.766513386741E-03 8.465722203255E-06 5.153654235840E+03
    5.760000000000E+04 2.011656761169E-07 2.287669116430E-01 7.823109626770E-08
    9.711569000344E-01 2.202500000000E+02 9.446868003285E-01-7.716392847306E-09
    4.964492505326E-10 1.000000000000E+00 2.298000000000E+03 0.000000000000E+00
    2.000000000000E+00 0.000000000000E+00-1.117587089539E-08 1.020000000000E+02
    5.074800000000E+04 4.000000000000E+00
14 24  1 21 16  0  0.0 3.047091886401E-04 1.023181539495E-11 0.000000000000E+00
    1.620000000000E+02 4.996875000000E+01 4.816986361103E-09 1.713478811533E+00
    2.659857273102E-06 3.880835371092E-03 9.005889296532E-06 5.153687118530E+03
    5.760000000000E+04 4.097819328308E-08 2.210091356273E+00 9.872019290924E-08
    9.465438051317E-01 1.993125000000E+02-2.967676682069E+00-8.048192382375E-09
   -4.771627328860E-10 1.000000000000E+00 2.298000000000E+03 0.000000000000E+00
    2.000000000000E+00 0.000000000000E+00-7.916241884232E-09 6.740000000000E+02
    5.041800000000E+04 4.000000000000E+00
17 24  1 21 15 59 44.0 7.193335331976E-04-9.094947017729E-13 0.000000000000E+00
    1.500000000000E+01 1.019375000000E+02 4.319465637367E-09-9.936515403408E-01
    5.424022674561E-06 1.365952554625E-02 5.653128027916E-06 5.153658891678E+03
    5.758400000000E+04-1.639127731323E-07-2.991829553184E+00 7.823109626770E-08
    9.711714765502E-01 2.829062500000E+02-1.344081140203E+00-8.224628303067E-09
    1.021471119801E-10 1.000000000000E+00 2.298000000000E+03 0.000000000000E+00
    2.000000000000E+00 0.000000000000E+00-1.117587089539E-08 1.500000000000E+01
    5.175600000000E+04 4.000000000000E+00
19 24  1 21 16  0  0.0 4.296675324440E-04 5.229594535194E-12 0.000000000000E+00
    6.800000000000E+01 1.020000000000E+02 4.295178911442E-09 1.050514563360E+00
    5.157664418221E-06 9.433729224838E-03 4.636123776436E-06 5.153684082031E+03
    5.760000000000E+04 2.775341272354E-07-2.947454007667E+00-8.940696716309E-08
    9.703148546284E-01 2.934062500000E+02 2.472688089041E+00-8.079622262984E-09
    1.535778257043E-11 1.000000000000E+00 2.298000000000E+03 0.000000000000E+00
    2.000000000000E+00 0.000000000000E+00-1.536682248116E-08 6.800000000000E+01
    5.041800000000E+04 4.000000000000E+00
20 24  1 21 16  0  0.0 3.905212506652E-04-1.477928890381E-12 0.000000000000E+00
    4.000000000000E+01-1.281562500000E+02 4.420541276145E-09-2.459304559586E+00
   -6.577000021935E-06 3.954008454457E-03 6.712973117828E-06 5.153709791183E+03
    5.760000000000E+04 0.000000000000E+00-1.132266776347E+00-7.823109626770E-08
    9.519397258020E-01 2.426250000000E+02-2.662920356019E+00-8.063550164945E-09
    2.285809498855E-11 1.000000000000E+00 2.298000000000E+03 0.000000000000E+00
    2.000000000000E+00 0.000000000000E+00-8.381903171539E-09 4.000000000000E+01
    5.041800000000E+04 4.000000000000E+00
22 24  1 21 16  0  0.0 4.442874342203E-05-6.480149750132E-12 0.000000000000E+00
    1.000000000000E+02 5.056250000000E+01 4.531617331480E-09-4.739036893394E-01
    2.626329660416E-06 1.461448066402E-02 9.162351489067E-06 5.153720804214E+03
    5.760000000000E+04-1.396983861923E-07 2.273833896389E+00-1.043081283569E-07
    9.621109446284E-01 2.080000000000E+02-1.145646170133E+00-8.113195089998E-09
   -3.414427938915E-10 1.000000000000E+00 2.298000000000E+03 0.000000000000E+00
    2.000000000000E+00 0.000000000000E+00-1.117587089539E-08 1.000000000000E+02
    5.041800000000E+04 4.000000000000E+00
30 24  1 21 14  0  0.0-4.427051171660E-04 4.661160346586E-12 0.000000000000E+00
    9.900000000000E+01 5.906250000000E+00 5.562374552370E-09 1.255643236524E+00
    4.600733518600E-07 6.717190728523E-03 6.290152668953E-06 5.153694469452E+03
    5.040000000000E+04-7.450580596924E-09 1.139381640390E+00 1.136213541031E-07
    9.350780237644E-01 2.470937500000E+02-2.543716439566E+00-8.459638092168E-09
   -1.821504444400E-10 1.000000000000E+00 2.298000000000E+03 0.000000000000E+00
    2.000000000000E+00 0.000000000000E+00 3.725290298462E-09 9.900000000000E+01
    4.321800000000E+04 4.000000000000E+00
